{
    "links": {
        "self": "http://www.neowsapp.com/rest/v1/neo/3582514?api_key=iIulBulltgU6a56xZRHN4H3l9WmuAYTsLGpBGhQ2"
    },
    "id": "3582514",
    "neo_reference_id": "3582514",
    "name": "(2011 UT63)",
    "designation": "2011 UT63",
    "nasa_jpl_url": "http://ssd.jpl.nasa.gov/sbdb.cgi?sstr=3582514",
    "absolute_magnitude_h": 24.8,
    "estimated_diameter": {
        "kilometers": {
            "estimated_diameter_min": 0.0291443905,
            "estimated_diameter_max": 0.0651688382
        },
        "meters": {
            "estimated_diameter_min": 29.1443904535,
            "estimated_diameter_max": 65.1688382168
        },
        "miles": {
            "estimated_diameter_min": 0.018109479,
            "estimated_diameter_max": 0.0404940262
        },
        "feet": {
            "estimated_diameter_min": 95.6180819754,
            "estimated_diameter_max": 213.8085311752
        }
    },
    "is_potentially_hazardous_asteroid": false,
    "close_approach_data": [
        {
            "close_approach_date": "2011-10-20",
            "close_approach_date_full": "2011-Oct-20 12:00",
            "epoch_date_close_approach": 1319112000000,
            "relative_velocity": {
                "kilometers_per_second": "12.5683354592",
                "kilometers_per_hour": "45246.0076530199",
                "miles_per_hour": "28114.1095886223"
            },
            "miss_distance": {
                "astronomical": "0.0331963685",
                "lunar": "12.9133873465",
                "kilometers": "4966106.019335095",
                "miles": "3085795.190190511"
            },
            "orbiting_body": "Earth"
        },
        {
            "close_approach_date": "2080-09-21",
            "close_approach_date_full": "2080-Sep-21 12:53",
            "epoch_date_close_approach": 3494148780000,
            "relative_velocity": {
                "kilometers_per_second": "16.3231261927",
                "kilometers_per_hour": "58763.2542938003",
                "miles_per_hour": "36513.2009805005"
            },
            "miss_distance": {
                "astronomical": "0.418237712",
                "lunar": "162.694469968",
                "kilometers": "62567470.86887344",
                "miles": "38877623.618555872"
            },
            "orbiting_body": "Earth"
        }
    ],
    "orbital_data": {
        "orbit_id": "7",
        "orbit_determination_date": "2017-04-06 08:52:21",
        "first_observation_date": "2011-10-21",
        "last_observation_date": "2011-10-30",
        "data_arc_in_days": 9,
        "observations_used": 32,
        "orbit_uncertainty": "8",
        "minimum_orbit_intersection": ".0323079",
        "jupiter_tisserand_invariant": "4.556",
        "epoch_osculation": "2455858.5",
        "eccentricity": ".2883289378554056",
        "semi_major_axis": "1.437124926716556",
        "inclination": "21.74358000935651",
        "ascending_node_longitude": "206.9360812446157",
        "orbital_period": "629.2746115016666",
        "perihelion_distance": "1.022760223030844",
        "perihelion_argument": "167.1658940357756",
        "aphelion_distance": "1.851489630402269",
        "perihelion_time": "2455843.851441219907",
        "mean_anomaly": "8.380254128240026",
        "mean_motion": ".5720872786221513",
        "equinox": "J2000",
        "orbit_class": {
            "orbit_class_type": "AMO",
            "orbit_class_description": "Near-Earth asteroid orbits similar to that of 1221 Amor",
            "orbit_class_range": "1.017 AU < q (perihelion) < 1.3 AU"
        }
    },
    "is_sentry_object": false
}